NORAD_CAT_ID,OBJECT_NAME,OBJECT_TYPE,EPOCH,MEAN_MOTION,ECCENTRICITY,INCLINATION,RA_OF_ASC_NODE,ARG_OF_PERICENTER,MEAN_ANOMALY,BSTAR,MEAN_MOTION_DOT,MEAN_MOTION_DDOT,TLE_LINE0,TLE_LINE1,TLE_LINE2,SEMIMAJOR_AXIS,PERIOD,APOGEE,PERIGEE,DECAYED
56800.0,STARLINK-6036,PAYLOAD,2024-07-17 22:46:53,14.98322768,0.0002682,70.0004,56.6659,270.8957,89.1895,8.8764e-06,1.3e-07,0.0,0 STARLINK-6036,1 56800U 23078AK  24199.94923485  .00000013  00000-0  88764-5 0  9990,2 56800  70.0004  56.6659 0002682 270.8957  89.1895 14.98322768 62845,6950.215,96.107,573.944,570.216,0.0
56800.0,STARLINK-6036,PAYLOAD,2024-07-18 08:23:42,14.98328142,0.0002671,70.0007,55.6561,278.6232,81.4624,-5.8938e-06,-1.63e-06,0.0,0 STARLINK-6036,1 56800U 23078AK  24200.34979337 -.00000163  00000-0 -58938-5 0  9992,2 56800  70.0007  55.6561 0002671 278.6232  81.4624 14.98328142 63162,6950.199,96.107,573.92,570.207,0.0
56800.0,STARLINK-6036,PAYLOAD,2024-07-18 22:48:54,14.98301216,0.0002518,70.0005,54.1412,271.8527,88.2344,0.00057822,6.808e-05,0.0,0 STARLINK-6036,1 56800U 23078AK  24200.95063509  .00006808  00000-0  57822-3 0  9993,2 56800  70.0005  54.1412 0002518 271.8527  88.2344 14.98301216 62998,6950.282,96.109,573.897,570.397,0.0
56800.0,STARLINK-6036,PAYLOAD,2024-07-19 14:50:15,14.98327621,0.0002704,70.0004,52.4584,276.9522,83.133,8.722e-05,9.48e-06,0.0,0 STARLINK-6036,1 56800U 23078AK  24201.61822980  .00000948  00000-0  87220-4 0  9998,2 56800  70.0004  52.4584 0002704 276.9522  83.1330 14.98327621 63095,6950.2,96.107,573.945,570.186,0.0
56800.0,STARLINK-6036,PAYLOAD,2024-07-19 19:38:39,14.98327199,0.0002784,70.0004,51.953,274.7281,85.356,9.1419e-05,9.98e-06,0.0,0 STARLINK-6036,1 56800U 23078AK  24201.81850989  .00000998  00000-0  91419-4 0  9990,2 56800  70.0004  51.9530 0002784 274.7281  85.3560 14.98327199 63387,6950.202,96.107,574.001,570.132,0.0
56800.0,STARLINK-6036,PAYLOAD,2024-07-19 22:50:54,14.9838361,0.0003035,70.0004,51.6163,273.2385,86.8427,-0.00081535,-9.822e-05,0.0,0 STARLINK-6036,1 56800U 23078AK  24201.95201557 -.00009822  00000-0 -81535-3 0  9990,2 56800  70.0004  51.6163 0003035 273.2385  86.8427 14.98383610 63147,6950.027,96.104,574.001,569.783,0.0
56800.0,STARLINK-6036,PAYLOAD,2024-07-20 14:52:15,14.9833009,0.000278,70.0008,49.9328,268.8929,91.1911,3.9712e-05,3.81e-06,0.0,0 STARLINK-6036,1 56800U 23078AK  24202.61962863  .00000381  00000-0  39712-4 0  9998,2 56800  70.0008  49.9328 0002780 268.8929  91.1911 14.98330090 63246,6950.193,96.107,573.99,570.125,0.0
56800.0,STARLINK-6036,PAYLOAD,2024-07-20 19:40:40,14.98331293,0.0002743,70.0007,49.4278,267.9523,92.1322,-3.4047e-05,-4.99e-06,0.0,0 STARLINK-6036,1 56800U 23078AK  24202.81990967 -.00000499  00000-0 -34047-4 0  9994,2 56800  70.0007  49.4278 0002743 267.9523  92.1322 14.98331293 63538,6950.189,96.107,573.96,570.147,0.0
56800.0,STARLINK-6036,PAYLOAD,2024-07-20 21:16:48,14.98317151,0.0002704,70.0007,49.2595,264.2164,95.8687,0.00020789,2.388e-05,0.0,0 STARLINK-6036,1 56800U 23078AK  24202.88667238  .00002388  00000-0  20789-3 0  9997,2 56800  70.0007  49.2595 0002704 264.2164  95.8687 14.98317151 63289,6950.233,96.108,573.977,570.218,0.0
56800.0,STARLINK-6036,PAYLOAD,2024-07-21 06:53:36,14.98333487,0.0002755,70.0007,48.2492,271.5749,88.5095,-2.8117e-05,-4.28e-06,0.0,0 STARLINK-6036,1 56800U 23078AK  24203.28722768 -.00000428  00000-0 -28117-4 0  9991,2 56800  70.0007  48.2492 0002755 271.5749  88.5095 14.98333487 63349,6950.182,96.107,573.962,570.132,0.0
56800.0,STARLINK-6036,PAYLOAD,2024-07-21 19:42:41,14.98328625,0.000281,70.0006,46.9039,264.0205,96.0634,-2.2068e-05,-3.56e-06,0.0,0 STARLINK-6036,1 56800U 23078AK  24203.82131005 -.00000356  00000-0 -22068-4 0  9998,2 56800  70.0006  46.9039 0002810 264.0205  96.0634 14.98328625 63684,6950.197,96.107,574.015,570.109,0.0
56800.0,STARLINK-6036,PAYLOAD,2024-07-21 21:18:49,14.98326483,0.0002819,70.0007,46.7351,264.8087,95.275,2.4122e-05,1.95e-06,0.0,0 STARLINK-6036,1 56800U 23078AK  24203.88807021  .00000195  00000-0  24122-4 0  9994,2 56800  70.0007  46.7351 0002819 264.8087  95.2750 14.98326483 63438,6950.204,96.107,574.028,570.11,0.0
56800.0,STARLINK-6036,PAYLOAD,2024-07-21 22:54:57,14.98329154,0.0002798,70.0007,46.567,264.9787,95.1053,-3.503e-06,-1.35e-06,0.0,0 STARLINK-6036,1 56800U 23078AK  24203.95482928 -.00000135  00000-0 -35030-5 0  9994,2 56800  70.0007  46.5670 0002798 264.9787  95.1053 14.98329154 63448,6950.196,96.107,574.005,570.116,0.0
56800.0,STARLINK-6036,PAYLOAD,2024-07-22 22:56:57,14.98331351,0.0002949,70.0005,44.0426,266.7531,93.3291,2.1289e-05,1.61e-06,0.0,0 STARLINK-6036,1 56800U 23078AK  24204.95622662  .00000161  00000-0  21289-4 0  9993,2 56800  70.0005  44.0426 0002949 266.7531  93.3291 14.98331351 63595,6950.189,96.107,574.103,570.004,0.0
56800.0,STARLINK-6036,PAYLOAD,2024-07-23 13:22:10,14.98337068,0.0002666,70.0008,42.5257,272.4775,87.6078,-0.00018832,-2.34e-05,0.0,0 STARLINK-6036,1 56800U 23078AK  24205.55706967 -.00002340  00000-0 -18832-3 0  9993,2 56800  70.0008  42.5257 0002666 272.4775  87.6078 14.98337068 63683,6950.171,96.107,573.889,570.183,0.0
56800.0,STARLINK-6036,PAYLOAD,2024-07-23 22:58:59,14.98322946,0.0003003,70.0003,41.5156,268.2567,91.8248,-3.3074e-05,-4.88e-06,0.0,0 STARLINK-6036,1 56800U 23078AK  24205.95763500 -.00000488  00000-0 -33074-4 0  9990,2 56800  70.0003  41.5156 0003003 268.2567  91.8248 14.98322946 64005,6950.215,96.107,574.167,569.993,0.0
56800.0,STARLINK-6036,PAYLOAD,2024-07-24 23:00:59,14.9834815,0.0003011,70.001,38.9912,270.7299,89.3515,-0.00017215,-2.147e-05,0.0,0 STARLINK-6036,1 56800U 23078AK  24206.95902526 -.00002147  00000-0 -17215-3 0  9996,2 56800  70.0010  38.9912 0003011 270.7299  89.3515 14.98348150 64152,6950.137,96.106,574.094,569.909,0.0
56800.0,STARLINK-6036,PAYLOAD,2024-07-25 23:03:00,14.98332936,0.000407,70.0,36.4641,254.7877,105.2832,3.2229e-05,2.91e-06,0.0,0 STARLINK-6036,1 56800U 23078AK  24207.96042166  .00000291  00000-0  32229-4 0  9992,2 56800  70.0000  36.4641 0004070 254.7877 105.2832 14.98332936 64305,6950.184,96.107,574.878,569.22,0.0
56800.0,STARLINK-6036,PAYLOAD,2024-07-26 11:52:05,14.98332376,0.000302,69.9974,35.1206,268.7789,91.3024,-6.988e-06,-1.76e-06,0.0,0 STARLINK-6036,1 56800U 23078AK  24208.49450704 -.00000176  00000-0 -69880-5 0  9990,2 56800  69.9974  35.1206 0003020 268.7789  91.3024 14.98332376 64122,6950.186,96.107,574.149,569.952,0.0
56800.0,STARLINK-6036,PAYLOAD,2024-07-27 11:54:06,14.98331387,0.0003012,69.9971,32.5955,267.9679,92.1135,1.3759e-05,7.1e-07,0.0,0 STARLINK-6036,1 56800U 23078AK  24209.49590463  .00000071  00000-0  13759-4 0  9993,2 56800  69.9971  32.5955 0003012 267.9679  92.1135 14.98331387 64539,6950.189,96.107,574.147,569.96,0.0
56800.0,STARLINK-6036,PAYLOAD,2024-07-27 21:30:54,14.98327727,0.0002975,69.9995,31.5849,268.9273,91.1545,-3.6533e-05,-5.29e-06,0.0,0 STARLINK-6036,1 56800U 23078AK  24209.89646870 -.00000529  00000-0 -36533-4 0  9996,2 56800  69.9995  31.5849 0002975 268.9273  91.1545 14.98327727 64339,6950.2,96.107,574.133,569.997,0.0
56800.0,STARLINK-6036,PAYLOAD,2024-07-28 11:56:07,14.98329205,0.0003083,70.0024,30.0705,269.389,90.6916,8.5658e-06,9e-08,0.0,0 STARLINK-6036,1 56800U 23078AK  24210.49730653  .00000009  00000-0  85658-5 0  9991,2 56800  70.0024  30.0705 0003083 269.3890  90.6916 14.98329205 64688,6950.195,96.107,574.203,569.918,0.0
56800.0,STARLINK-6036,PAYLOAD,2024-07-28 21:32:55,14.98332722,0.000303,70.0005,29.0598,269.0848,90.9963,2.2101e-05,1.71e-06,0.0,0 STARLINK-6036,1 56800U 23078AK  24210.89786391  .00000171  00000-0  22101-4 0  9998,2 56800  70.0005  29.0598 0003030 269.0848  90.9963 14.98332722 64488,6950.184,96.107,574.155,569.944,0.0
56800.0,STARLINK-6036,PAYLOAD,2024-07-29 11:58:07,14.98331351,0.0003011,70.0005,27.5445,268.8834,91.198,7.1536e-05,7.61e-06,0.0,0 STARLINK-6036,1 56800U 23078AK  24211.49870240  .00000761  00000-0  71536-4 0  9993,2 56800  70.0005  27.5445 0003011 268.8834  91.1980 14.98331351 64831,6950.189,96.107,574.146,569.961,0.0
56800.0,STARLINK-6036,PAYLOAD,2024-07-29 21:34:55,14.98334721,0.0002989,70.0006,26.5345,268.8902,91.1914,0.00010136,1.117e-05,0.0,0 STARLINK-6036,1 56800U 23078AK  24211.89925883  .00001117  00000-0  10136-3 0  9995,2 56800  70.0006  26.5345 0002989 268.8902  91.1914 14.98334721 64638,6950.178,96.107,574.121,569.966,0.0
56800.0,STARLINK-6036,PAYLOAD,2024-07-30 18:24:41,14.98330356,0.0002863,70.001,24.3475,268.4715,91.6116,4.6848e-06,-3.7e-07,0.0,0 STARLINK-6036,1 56800U 23078AK  24212.76714324 -.00000037  00000-0  46848-5 0  9990,2 56800  70.0010  24.3475 0002863 268.4715  91.6116 14.98330356 65025,6950.192,96.107,574.047,570.067,0.0
56800.0,STARLINK-6036,PAYLOAD,2024-07-30 21:36:57,14.98330538,0.0002857,70.001,24.0107,268.807,91.2761,5.7187e-06,-2.5e-07,0.0,0 STARLINK-6036,1 56800U 23078AK  24212.90066308 -.00000025  00000-0  57187-5 0  9993,2 56800  70.0010  24.0107 0002857 268.8070  91.2761 14.98330538 64781,6950.191,96.107,574.042,570.071,0.0
56800.0,STARLINK-6036,PAYLOAD,2024-07-31 13:38:18,14.98327893,0.0002738,70.0013,22.3273,270.4513,89.6332,-6.1479e-05,-8.26e-06,0.0,0 STARLINK-6036,1 56800U 23078AK  24213.56826700 -.00000826  00000-0 -61479-4 0  9994,2 56800  70.0013  22.3273 0002738 270.4513  89.6332 14.98327893 64884,6950.199,96.107,573.967,570.161,0.0
56800.0,STARLINK-6036,PAYLOAD,2024-07-31 20:02:50,14.98327023,0.0002791,70.0014,21.6536,272.0054,88.0786,-6.7147e-05,-8.94e-06,0.0,0 STARLINK-6036,1 56800U 23078AK  24213.83530820 -.00000894  00000-0 -67147-4 0  9992,2 56800  70.0014  21.6536 0002791 272.0054  88.0786 14.98327023 65181,6950.202,96.107,574.007,570.127,0.0
56800.0,STARLINK-6036,PAYLOAD,2024-07-31 21:38:58,14.98327486,0.0002776,70.0014,21.4856,270.9979,89.0861,-6.1454e-05,-8.26e-06,0.0,0 STARLINK-6036,1 56800U 23078AK  24213.90206783 -.00000826  00000-0 -61454-4 0  9998,2 56800  70.0014  21.4856 0002776 270.9979  89.0861 14.98327486 64930,6950.201,96.107,573.995,570.136,0.0
